[{"OBJECT_NAME":"GAOFEN-9 03","OBJECT_ID":"2020-039A","EPOCH":"2026-03-09T21:55:15.121344","MEAN_MOTION":15.30529116,"ECCENTRICITY":0.0013094,"INCLINATION":97.5219,"RA_OF_ASC_NODE":201.2158,"ARG_OF_PERICENTER":77.4533,"MEAN_ANOMALY":282.8172,"EPHEMERIS_TYPE":0,"CLASSIFICATION_TYPE":"U","NORAD_CAT_ID":45794,"ELEMENT_SET_NO":999,"REV_AT_EPOCH":31856,"BSTAR":0.00039258132,"MEAN_MOTION_DOT":0.00011544,"MEAN_MOTION_DDOT":0},{"OBJECT_NAME":"STARLINK-31163","OBJECT_ID":"2024-012W","EPOCH":"2026-03-09T07:38:30.535008","MEAN_MOTION":15.27571353,"ECCENTRICITY":0.00024937,"INCLINATION":43.0076,"RA_OF_ASC_NODE":166.9672,"ARG_OF_PERICENTER":302.1524,"MEAN_ANOMALY":57.9085,"EPHEMERIS_TYPE":0,"CLASSIFICATION_TYPE":"U","NORAD_CAT_ID":58807,"ELEMENT_SET_NO":999,"REV_AT_EPOCH":12118,"BSTAR":5.3004281e-5,"MEAN_MOTION_DOT":1.196e-5,"MEAN_MOTION_DDOT":0}]
